SL-14 R/B               
1 18749U 88001B   21331.45936365  .00000114  00000+0  11046-4 0  9998
2 18749  82.5159 222.7979 0018813   3.0277 169.8658 14.83290431810130
COSMOS 1933             
1 18958U 88020A   21331.42968394  .00000954  00000+0  66796-4 0  9999
2 18958  82.5282 335.6378 0012129 147.7627 212.4343 15.04081944814439
SL-3 R/B                
1 19046U 88032B   21331.58105202  .00000164  00000+0  16383-4 0  9999
2 19046  97.3864 334.6368 0036133 205.7368 154.2062 15.03096215816286
SL-16 R/B               
1 19120U 88039B   21331.45244463 -.00000159  00000+0 -52548-4 0  9997
2 19120  71.0129 132.8220 0023450 222.1155 137.8168 14.19228803736564
COSMOS 1953             
1 19210U 88050A   21331.20152449  .00001145  00000+0  75430-4 0  9994
2 19210  82.5163 257.3668 0014676 110.3574 249.9231 15.06493584801107
SL-8 R/B                
1 19257U 88053B   21331.36571222 -.00000031  00000+0 -14137-5 0  9992
2 19257  74.0462 110.2394 0021245 316.5454  75.9125 14.37539386751866
COSMOS 1975             
1 19573U 88093A   21331.42819557  .00001038  00000+0  70222-4 0  9992
2 19573  82.5216 212.6036 0014238 157.1425 203.0439 15.05408505782881
SL-14 R/B               
1 19574U 88093B   21331.53032345  .00000136  00000+0  13574-4 0  9992
2 19574  82.5336  66.2241 0022176 157.0164 213.8444 14.83402178769150
SL-16 R/B               
1 19650U 88102B   21331.32948129  .00000130  00000+0  90439-4 0  9990
2 19650  70.9987 199.8823 0016137 235.6418 124.3179 14.15810540705592
INTERCOSMOS 24          
1 20261U 89080A   21331.15865052  .00000073  00000+0  20639-4 0  9991
2 20261  82.6053  38.7498 1201266 310.1347  40.0334 12.56227911470251
SL-14 R/B               
1 20262U 89080C   21331.32520038  .00000160  00000+0  40532-4 0  9994
2 20262  82.5923  95.7886 1236946 153.4746 213.5498 12.48998954464888
DELTA 2 R/B(1)          
1 20303U 89085B   21331.29470135  .00003043  00000+0  90853-4 0  9997
2 20303  35.6407 287.9356 0089231 200.1022 159.6181 15.30491425749426
DELTA 1 R/B             
1 20323U 89089B   21331.43582578  .00000065  00000+0  25972-4 0  9995
2 20323  97.1118  40.2645 0071868  11.5463 348.7361 14.48435618669298
ARIANE 40 R/B           
1 20443U 90005H   21331.45069090  .00000031  00000+0  24852-4 0  9998
2 20443  98.5112  36.4065 0010054 203.1326 156.9410 14.38156784668005
DELTA 2 R/B(1)          
1 20453U 90008B   21331.56283706  .00001598  00000+0  89794-4 0  9991
2 20453  35.6252  18.6770 0273912  38.3720 323.6143 14.87351378689816
COSMOS 2058             
1 20465U 90010A   21331.42676015  .00000624  00000+0  50042-4 0  9994
2 20465  82.4870 125.1891 0014470 216.8458 143.1772 14.98358573707377
SL-14 R/B               
1 20466U 90010B   21331.33832750  .00000142  00000+0  15022-4 0  9999
2 20466  82.5016 292.7227 0021626  46.4023 313.8981 14.81452264696886
SL-14 R/B               
1 20511U 90018B   21331.21105654  .00000111  00000+0  11534-4 0  9991
2 20511  82.5247 241.5815 0017279 181.9653 330.9112 14.80106859691179
HST                     
1 20580U 90037B   21331.60534924  .00000891  00000+0  42734-4 0  9998
2 20580  28.4707  65.4038 0002770  25.2159 102.5928 15.09853624535677
SL-16 R/B               
1 20625U 90046B   21331.42019342  .00000285  00000+0  17269-3 0  9991
2 20625  70.9991 340.0000 0013757 168.8778 191.2651 14.14677091627287
COSMOS 2084             
1 20663U 90055A   21331.38062147  .00000271  00000+0  42438-4 0  9991
2 20663  62.7926 205.0916 0094054  27.9262 332.6833 14.92389401702136
SL-6 R/B(2)             
1 20666U 90055D   21331.41189705  .00000159  00000+0  31478-4 0  9995
2 20666  62.7831 120.0575 0116431  52.2924 308.8656 14.92640917704098
SL-8 R/B                
1 20775U 90078B   21331.54683082  .00002924  00000+0  13934-3 0  9990
2 20775  82.9239 150.4177 0563544 356.1895   3.5080 14.36814923581501
SL-8 R/B                
1 21088U 91006B   21331.53122902  .00000057  00000+0  42234-4 0  9999
2 21088  82.9435 252.5770 0023973  92.1371  81.0309 13.77190607548893
OKEAN-3                 
1 21397U 91039A   21331.41916772  .00000463  00000+0  41703-4 0  9992
2 21397  82.5237  34.7473 0017303 197.5397 162.5228 14.93231377631022
COSMOS 2151             
1 21422U 91042A   21331.45535004  .00000367  00000+0  33358-4 0  9994
2 21422  82.4982 140.1915 0012649 268.8911  91.0860 14.92345506629554
SL-14 R/B               
1 21423U 91042B   21331.48703642  .00000119  00000+0  12772-4 0  9995
2 21423  82.4953 243.3629 0016896 334.0921  25.9444 14.79855736621750
ERS-1                   
1 21574U 91050A   21331.54591348  .00000105  00000+0  49372-4 0  9997
2 21574  98.6708 293.2379 0033268 155.7830 204.4929 14.37831638591004
ARIANE 40 R/B           
1 21610U 91050F   21331.14092769  .00000042  00000+0  26617-4 0  9994
2 21610  98.4074  39.3451 0004361 110.6504 279.4453 14.40980249593697
INTERCOSMOS 25          
1 21819U 91086A   21331.29062705 -.00000373  00000+0 -77740-4 0  9999
2 21819  82.5935 169.9761 1513981 227.0183 119.3879 12.05453400307872
SL-8 R/B                
1 21876U 92008B   21331.58107900  .00000099  00000+0  86678-4 0  9999
2 21876  82.9265 349.8815 0034895 177.2042 336.2017 13.75687651494488
SL-8 R/B                
1 21938U 92020B   21331.52722411  .00000039  00000+0  24586-4 0  9990
2 21938  82.9321 234.4946 0029032 342.9505 190.6964 13.75286621486257
COSMOS 2219             
1 22219U 92076A   21331.58033368 -.00000102  00000+0 -29150-4 0  9991
2 22219  71.0632  44.4426 0015919  63.1816 297.0932 14.13678559497440
SL-16 R/B               
1 22220U 92076B   21331.47269926  .00000167  00000+0  10771-3 0  9999
2 22220  71.0005 240.0564 0014505 310.9074 222.0510 14.16477318500440
COSMOS 2221             
1 22236U 92080A   21331.43173132  .00000411  00000+0  41866-4 0  9992
2 22236  82.5060 324.6923 0016923  14.5468 345.6232 14.88152283547784
SL-16 R/B               
1 22285U 92093B   21331.49441794 -.00000278  00000+0 -11900-3 0  9996
2 22285  71.0232  44.7159 0004527 204.0947 155.9965 14.15069486491996
COSMOS 2228             
1 22286U 92094A   21331.57453002  .00000383  00000+0  38436-4 0  9991
2 22286  82.5192 281.4171 0022341 124.1363 236.1978 14.88377597542999
SL-16 R/B               
1 22566U 93016B   21331.55224467  .00000270  00000+0  16415-3 0  9993
2 22566  71.0081 257.2086 0010759 193.8542 166.2287 14.14980101481031
COSMOS 2242             
1 22626U 93024A   21331.40321109  .00000334  00000+0  33368-4 0  9992
2 22626  82.5197 309.9332 0020187 124.8165 235.4955 14.88222814547353
SL-16 R/B               
1 22803U 93059B   21331.28598706 -.00000098  00000+0 -25081-4 0  9994
2 22803  70.9915  66.8848 0014987  68.9613 291.3111 14.16846745458067
ARIANE 40 R/B           
1 22830U 93061H   21331.59168911  .00000009  00000+0  20180-4 0  9997
2 22830  98.6937  29.5353 0010506 207.6982 152.3643 14.31500382470385
COSMOS 2278             
1 23087U 94023A   21331.40788084  .00000276  00000+0  17043-3 0  9999
2 23087  71.0526 204.1107 0010793 257.0445 102.9472 14.13837330423811
SL-16 R/B               
1 23088U 94023B   21331.37853168 -.00000033  00000+0  76034-5 0  9991
2 23088  70.9966 113.0299 0003121 192.6942 167.4102 14.14692879424973
SL-16 R/B               
1 23343U 94074B   21331.58824057  .00000076  00000+0  18068-4 0  9997
2 23343  97.9249  23.5411 0005614 242.9744 276.8235 14.76920141456363
SL-16 R/B               
1 23405U 94077B   21331.47092294 -.00000215  00000+0 -86083-4 0  9996
2 23405  70.9840  40.2173 0002927 327.1113  32.9827 14.15243523395041
ERS-2                   
1 23560U 95021A   21331.40446048  .00002008  00000+0  85258-4 0  9994
2 23560  98.5259 204.0526 0003667 150.9203 209.2236 15.24547280422513
ARIANE 40+ R/B          
1 23561U 95021B   21331.58854427  .00000068  00000+0  37351-4 0  9993
2 23561  98.6541  22.7996 0007944 122.9267  45.5419 14.38063396394478
SL-16 R/B               
1 23705U 95058B   21331.39407268  .00000007  00000+0  28279-4 0  9991
2 23705  71.0218 221.2501 0013310 332.9516  27.0911 14.15153004346667
SL-16 R/B               
1 24298U 96051B   21331.47144732 -.00000122  00000+0 -39618-4 0  9995
2 24298  70.8215 237.0352 0018644 283.4131  76.4911 14.12404572300918
ORBVIEW 2 (SEASTAR)     
1 24883U 97037A   21331.32538873  .00000083  00000+0  46114-4 0  9990
2 24883  98.6601  89.3466 0002241  15.1938 344.9313 14.33652319284344
SL-16 R/B               
1 25400U 98043G   21331.55842922  .00000003  00000+0  19883-4 0  9997
2 25400  98.6543 265.0879 0008979 233.2000 126.8357 14.25488589216250
SL-16 R/B               
1 25407U 98045B   21331.45527180  .00000076  00000+0  63092-4 0  9992
2 25407  71.0119 227.9089 0009724 253.8608 106.1445 14.15847872205814
ISS (ZARYA)             
1 25544U 98067A   21331.67019919  .00007048  00000+0  13743-3 0  9991
2 25544  51.6436 254.3632 0004339 246.1204 183.7632 15.48685986313939
CZ-4B R/B               
1 25732U 99025C   21331.37701260  .00000005  00000+0  23955-4 0  9992
2 25732  98.8838   8.0483 0037973 143.6136 227.3712 14.17705880166627
OKEAN-O                 
1 25860U 99039A   21331.55359613  .00000119  00000+0  24482-4 0  9992
2 25860  98.1665   4.3938 0001236  67.7896 292.3444 14.76787499203454
SL-16 R/B               
1 25861U 99039B   21331.02489160  .00000065  00000+0  16400-4 0  9997
2 25861  98.1969 349.4907 0014305 262.8963 119.6491 14.78685365205585
DELTA 2 R/B             
1 25876U 99041E   21331.42193655 -.00000064  00000+0  31359-4 0  9991
2 25876  51.7650  25.7337 0531249  84.1746 281.9465 14.04683180142822
HELIOS 1B               
1 25977U 99064A   21331.48604256  .00000144  00000+0  25019-4 0  9992
2 25977  98.3211 152.5254 0002445  86.5071 273.6420 14.82610604453358
TERRA                   
1 25994U 99068A   21331.53219818  .00000121  00000+0  36765-4 0  9992
2 25994  98.1615  42.8388 0001208 102.3042  14.5017 14.57137381167098
